{
    "week": 291,
    "satellites": [
        {
            "Name": "BEIDOU-3 M8 (C28)",
            "Line1": "1 43108U 18003B   24309.18414733 -.00000051  00000+0  00000+0 0  9992",
            "Line2": "2 43108  54.8247 322.7842 0005217 261.1156  98.8580  1.86230981 46379",
            "SatelliteNumber": "43108",
            "Classification": "U",
            "LaunchYear": "18",
            "LaunchNumber": "003",
            "PieceOfLaunch": "B",
            "EpochYear": "24",
            "EpochDay": 309.18414733,
            "FirstDerivativeMeanMotion": -5.1e-07,
            "SecondDerivativeMeanMotion": "00000+0",
            "BSTAR": "00000+0",
            "SetNumber": "999",
            "Inclination": 54.8247,
            "RAAN": 322.7842,
            "Eccentricity": 0.0005217,
            "ArgumentOfPerigee": 261.1156,
            "MeanAnomaly": 98.858,
            "MeanMotion": 1.86230981,
            "RevolutionNumber": "4637"
        },
        {
            "Name": "BEIDOU-3 M4 (C22)",
            "Line1": "1 43207U 18018A   24309.08827044  .00000007  00000+0  00000+0 0  9990",
            "Line2": "2 43207  56.1384  82.6918 0003854  24.4007 335.5967  1.86231264 45758",
            "SatelliteNumber": "43207",
            "Classification": "U",
            "LaunchYear": "18",
            "LaunchNumber": "018",
            "PieceOfLaunch": "A",
            "EpochYear": "24",
            "EpochDay": 309.08827044,
            "FirstDerivativeMeanMotion": 7e-08,
            "SecondDerivativeMeanMotion": "00000+0",
            "BSTAR": "00000+0",
            "SetNumber": "999",
            "Inclination": 56.1384,
            "RAAN": 82.6918,
            "Eccentricity": 0.0003854,
            "ArgumentOfPerigee": 24.4007,
            "MeanAnomaly": 335.5967,
            "MeanMotion": 1.86231264,
            "RevolutionNumber": "4575"
        },
        {
            "Name": "BEIDOU-3 M3 (C21)",
            "Line1": "1 43208U 18018B   24308.08098584  .00000001  00000+0  00000+0 0  9993",
            "Line2": "2 43208  56.1371  82.7294 0005099 316.5767  43.3610  1.86231379 45738",
            "SatelliteNumber": "43208",
            "Classification": "U",
            "LaunchYear": "18",
            "LaunchNumber": "018",
            "PieceOfLaunch": "B",
            "EpochYear": "24",
            "EpochDay": 308.08098584,
            "FirstDerivativeMeanMotion": 1e-08,
            "SecondDerivativeMeanMotion": "00000+0",
            "BSTAR": "00000+0",
            "SetNumber": "999",
            "Inclination": 56.1371,
            "RAAN": 82.7294,
            "Eccentricity": 0.0005099,
            "ArgumentOfPerigee": 316.5767,
            "MeanAnomaly": 43.361,
            "MeanMotion": 1.86231379,
            "RevolutionNumber": "4573"
        },
        {
            "Name": "BEIDOU-3 M9 (C29)",
            "Line1": "1 43245U 18029A   24309.37492790 -.00000048  00000+0  00000+0 0  9998",
            "Line2": "2 43245  54.7107 320.4871 0002292 258.6928 101.3103  1.86232765 44911",
            "SatelliteNumber": "43245",
            "Classification": "U",
            "LaunchYear": "18",
            "LaunchNumber": "029",
            "PieceOfLaunch": "A",
            "EpochYear": "24",
            "EpochDay": 309.3749279,
            "FirstDerivativeMeanMotion": -4.8e-07,
            "SecondDerivativeMeanMotion": "00000+0",
            "BSTAR": "00000+0",
            "SetNumber": "999",
            "Inclination": 54.7107,
            "RAAN": 320.4871,
            "Eccentricity": 0.0002292,
            "ArgumentOfPerigee": 258.6928,
            "MeanAnomaly": 101.3103,
            "MeanMotion": 1.86232765,
            "RevolutionNumber": "4491"
        },
        {
            "Name": "BEIDOU-3 M10 (C30)",
            "Line1": "1 43246U 18029B   24308.76745744 -.00000051  00000+0  00000+0 0  9995",
            "Line2": "2 43246  54.7085 320.5355 0003434 342.6421  17.3760  1.86232941 44883",
            "SatelliteNumber": "43246",
            "Classification": "U",
            "LaunchYear": "18",
            "LaunchNumber": "029",
            "PieceOfLaunch": "B",
            "EpochYear": "24",
            "EpochDay": 308.76745744,
            "FirstDerivativeMeanMotion": -5.1e-07,
            "SecondDerivativeMeanMotion": "00000+0",
            "BSTAR": "00000+0",
            "SetNumber": "999",
            "Inclination": 54.7085,
            "RAAN": 320.5355,
            "Eccentricity": 0.0003434,
            "ArgumentOfPerigee": 342.6421,
            "MeanAnomaly": 17.376,
            "MeanMotion": 1.86232941,
            "RevolutionNumber": "4488"
        },
        {
            "Name": "BEIDOU-2 IGSO-7 (C16)",
            "Line1": "1 43539U 18057A   24309.56416421 -.00000060  00000+0  00000+0 0  9997",
            "Line2": "2 43539  55.1479 168.1655 0077832 232.3965 320.0751  1.00269136 23221",
            "SatelliteNumber": "43539",
            "Classification": "U",
            "LaunchYear": "18",
            "LaunchNumber": "057",
            "PieceOfLaunch": "A",
            "EpochYear": "24",
            "EpochDay": 309.56416421,
            "FirstDerivativeMeanMotion": -6e-07,
            "SecondDerivativeMeanMotion": "00000+0",
            "BSTAR": "00000+0",
            "SetNumber": "999",
            "Inclination": 55.1479,
            "RAAN": 168.1655,
            "Eccentricity": 0.0077832,
            "ArgumentOfPerigee": 232.3965,
            "MeanAnomaly": 320.0751,
            "MeanMotion": 1.00269136,
            "RevolutionNumber": "2322"
        },
        {
            "Name": "BEIDOU-3 M5 (C23)",
            "Line1": "1 43581U 18062A   24308.99271035  .00000046  00000+0  00000+0 0  9999",
            "Line2": "2 43581  54.1159 202.3768 0002778 317.3398  42.7266  1.86228811 42644",
            "SatelliteNumber": "43581",
            "Classification": "U",
            "LaunchYear": "18",
            "LaunchNumber": "062",
            "PieceOfLaunch": "A",
            "EpochYear": "24",
            "EpochDay": 308.99271035,
            "FirstDerivativeMeanMotion": 4.6e-07,
            "SecondDerivativeMeanMotion": "00000+0",
            "BSTAR": "00000+0",
            "SetNumber": "999",
            "Inclination": 54.1159,
            "RAAN": 202.3768,
            "Eccentricity": 0.0002778,
            "ArgumentOfPerigee": 317.3398,
            "MeanAnomaly": 42.7266,
            "MeanMotion": 1.86228811,
            "RevolutionNumber": "4264"
        },
        {
            "Name": "BEIDOU-3 M6 (C24)",
            "Line1": "1 43582U 18062B   24309.39476978  .00000045  00000+0  00000+0 0  9997",
            "Line2": "2 43582  54.1156 202.3525 0006593  30.9988 329.1285  1.86229899 42656",
            "SatelliteNumber": "43582",
            "Classification": "U",
            "LaunchYear": "18",
            "LaunchNumber": "062",
            "PieceOfLaunch": "B",
            "EpochYear": "24",
            "EpochDay": 309.39476978,
            "FirstDerivativeMeanMotion": 4.5e-07,
            "SecondDerivativeMeanMotion": "00000+0",
            "BSTAR": "00000+0",
            "SetNumber": "999",
            "Inclination": 54.1156,
            "RAAN": 202.3525,
            "Eccentricity": 0.0006593,
            "ArgumentOfPerigee": 30.9988,
            "MeanAnomaly": 329.1285,
            "MeanMotion": 1.86229899,
            "RevolutionNumber": "4265"
        },
        {
            "Name": "BEIDOU-3 M12 (C26)",
            "Line1": "1 43602U 18067A   24308.79143532  .00000047  00000+0  00000+0 0  9997",
            "Line2": "2 43602  54.2071 201.0669 0008257  30.4269 329.7106  1.86227724 42122",
            "SatelliteNumber": "43602",
            "Classification": "U",
            "LaunchYear": "18",
            "LaunchNumber": "067",
            "PieceOfLaunch": "A",
            "EpochYear": "24",
            "EpochDay": 308.79143532,
            "FirstDerivativeMeanMotion": 4.7e-07,
            "SecondDerivativeMeanMotion": "00000+0",
            "BSTAR": "00000+0",
            "SetNumber": "999",
            "Inclination": 54.2071,
            "RAAN": 201.0669,
            "Eccentricity": 0.0008257,
            "ArgumentOfPerigee": 30.4269,
            "MeanAnomaly": 329.7106,
            "MeanMotion": 1.86227724,
            "RevolutionNumber": "4212"
        },
        {
            "Name": "BEIDOU-3 M11 (C25)",
            "Line1": "1 43603U 18067B   24308.92486274  .00000047  00000+0  00000+0 0  9996",
            "Line2": "2 43603  54.2044 201.0272 0004956  23.8820 336.2308  1.86227237 42153",
            "SatelliteNumber": "43603",
            "Classification": "U",
            "LaunchYear": "18",
            "LaunchNumber": "067",
            "PieceOfLaunch": "B",
            "EpochYear": "24",
            "EpochDay": 308.92486274,
            "FirstDerivativeMeanMotion": 4.7e-07,
            "SecondDerivativeMeanMotion": "00000+0",
            "BSTAR": "00000+0",
            "SetNumber": "999",
            "Inclination": 54.2044,
            "RAAN": 201.0272,
            "Eccentricity": 0.0004956,
            "ArgumentOfPerigee": 23.882,
            "MeanAnomaly": 336.2308,
            "MeanMotion": 1.86227237,
            "RevolutionNumber": "4215"
        }
    ]
}